[{"OBJECT_NAME":"NOAA 17","OBJECT_ID":"2002-032A","EPOCH":"2026-03-03T03:37:45.828768","MEAN_MOTION":14.26184508,"ECCENTRICITY":0.0010736,"INCLINATION":98.8529,"RA_OF_ASC_NODE":26.7121,"ARG_OF_PERICENTER":302.5135,"MEAN_ANOMALY":57.5007,"EPHEMERIS_TYPE":0,"CLASSIFICATION_TYPE":"U","NORAD_CAT_ID":27453,"ELEMENT_SET_NO":999,"REV_AT_EPOCH":23187,"BSTAR":0.00013286,"MEAN_MOTION_DOT":2.73e-6,"MEAN_MOTION_DDOT":0},{"OBJECT_NAME":"NOAA 18","OBJECT_ID":"2005-018A","EPOCH":"2026-03-03T04:07:42.966048","MEAN_MOTION":14.13709293,"ECCENTRICITY":0.0015354,"INCLINATION":98.8167,"RA_OF_ASC_NODE":143.3703,"ARG_OF_PERICENTER":92.7273,"MEAN_ANOMALY":267.5658,"EPHEMERIS_TYPE":0,"CLASSIFICATION_TYPE":"U","NORAD_CAT_ID":28654,"ELEMENT_SET_NO":999,"REV_AT_EPOCH":7133,"BSTAR":6.1833e-5,"MEAN_MOTION_DOT":7.3e-7,"MEAN_MOTION_DDOT":0},{"OBJECT_NAME":"NOAA 19","OBJECT_ID":"2009-005A","EPOCH":"2026-03-03T03:38:58.293312","MEAN_MOTION":14.13455278,"ECCENTRICITY":0.0013148,"INCLINATION":98.962,"RA_OF_ASC_NODE":132.9118,"ARG_OF_PERICENTER":334.1322,"MEAN_ANOMALY":25.9191,"EPHEMERIS_TYPE":0,"CLASSIFICATION_TYPE":"U","NORAD_CAT_ID":33591,"ELEMENT_SET_NO":999,"REV_AT_EPOCH":87950,"BSTAR":5.6334e-5,"MEAN_MOTION_DOT":6.1e-7,"MEAN_MOTION_DDOT":0},{"OBJECT_NAME":"SUOMI NPP","OBJECT_ID":"2011-061A","EPOCH":"2026-03-03T04:30:55.798848","MEAN_MOTION":14.19541363,"ECCENTRICITY":4.41e-5,"INCLINATION":98.7863,"RA_OF_ASC_NODE":3.8427,"ARG_OF_PERICENTER":293.3252,"MEAN_ANOMALY":66.7877,"EPHEMERIS_TYPE":0,"CLASSIFICATION_TYPE":"U","NORAD_CAT_ID":37849,"ELEMENT_SET_NO":999,"REV_AT_EPOCH":74340,"BSTAR":7.0687e-5,"MEAN_MOTION_DOT":1.05e-6,"MEAN_MOTION_DDOT":0},{"OBJECT_NAME":"NOAA 20 (JPSS-1)","OBJECT_ID":"2017-073A","EPOCH":"2026-03-03T03:10:30.528192","MEAN_MOTION":14.1953398,"ECCENTRICITY":9.0e-5,"INCLINATION":98.7685,"RA_OF_ASC_NODE":2.5849,"ARG_OF_PERICENTER":145.6534,"MEAN_ANOMALY":214.47,"EPHEMERIS_TYPE":0,"CLASSIFICATION_TYPE":"U","NORAD_CAT_ID":43013,"ELEMENT_SET_NO":999,"REV_AT_EPOCH":42942,"BSTAR":5.9529e-5,"MEAN_MOTION_DOT":8.1e-7,"MEAN_MOTION_DDOT":0},{"OBJECT_NAME":"NOAA 21 (JPSS-2)","OBJECT_ID":"2022-150A","EPOCH":"2026-03-03T02:19:05.666304","MEAN_MOTION":14.19550087,"ECCENTRICITY":0.0002501,"INCLINATION":98.7548,"RA_OF_ASC_NODE":2.4383,"ARG_OF_PERICENTER":118.3069,"MEAN_ANOMALY":241.8359,"EPHEMERIS_TYPE":0,"CLASSIFICATION_TYPE":"U","NORAD_CAT_ID":54234,"ELEMENT_SET_NO":999,"REV_AT_EPOCH":17149,"BSTAR":7.3245e-5,"MEAN_MOTION_DOT":1.1e-6,"MEAN_MOTION_DDOT":0}]
