NOAA 17                 
1 27453U 02032A   26062.15122487  .00000273  00000+0  13286-3 0  9998
2 27453  98.8529  26.7121 0010736 302.5135  57.5007 14.26184508231873
NOAA 18                 
1 28654U 05018A   26062.17202507  .00000073  00000+0  61833-4 0  9993
2 28654  98.8167 143.3703 0015354  92.7273 267.5658 14.13709293 71337
NOAA 19                 
1 33591U 09005A   26062.15206358  .00000061  00000+0  56334-4 0  9992
2 33591  98.9620 132.9118 0013148 334.1322  25.9191 14.13455278879503
SUOMI NPP               
1 37849U 11061A   26062.18814582  .00000105  00000+0  70687-4 0  9990
2 37849  98.7863   3.8427 0000441 293.3252  66.7877 14.19541363743409
NOAA 20 (JPSS-1)        
1 43013U 17073A   26062.13229778  .00000081  00000+0  59529-4 0  9996
2 43013  98.7685   2.5849 0000900 145.6534 214.4700 14.19533980429423
NOAA 21 (JPSS-2)        
1 54234U 22150A   26062.09659336  .00000110  00000+0  73245-4 0  9991
2 54234  98.7548   2.4383 0002501 118.3069 241.8359 14.19550087171491
